NORAD_CAT_ID,OBJECT_NAME,OBJECT_TYPE,EPOCH,MEAN_MOTION,ECCENTRICITY,INCLINATION,RA_OF_ASC_NODE,ARG_OF_PERICENTER,MEAN_ANOMALY,BSTAR,MEAN_MOTION_DOT,MEAN_MOTION_DDOT,TLE_LINE0,TLE_LINE1,TLE_LINE2,SEMIMAJOR_AXIS,PERIOD,APOGEE,PERIGEE,DECAYED
54059.0,STARLINK-5173,PAYLOAD,2023-06-18 07:15:44,15.08838029,0.0001162,53.2161,132.6356,88.8092,271.3034,1.9134e-05,1.7e-07,0.0,0 STARLINK-5173,1 54059U 22136J   23169.30259433  .00000017  00000-0  19134-4 0  9997,2 54059  53.2161 132.6356 0001162  88.8092 271.3034 15.08838029 36579,6917.886,95.438,540.555,538.948,0.0
54059.0,STARLINK-5173,PAYLOAD,2023-06-18 15:12:39,15.08838623,0.0001178,53.2161,131.1482,92.8231,267.2896,-2.8561e-05,-7.42e-06,0.0,0 STARLINK-5173,1 54059U 22136J   23169.63379543 -.00000742  00000-0 -28561-4 0  9999,2 54059  53.2161 131.1482 0001178  92.8231 267.2896 15.08838623 36626,6917.885,95.438,540.565,538.935,0.0
54059.0,STARLINK-5173,PAYLOAD,2023-06-19 03:55:44,15.08835849,0.0001161,53.2161,128.7691,89.6527,270.4598,0.0001366,1.887e-05,0.0,0 STARLINK-5173,1 54059U 22136J   23170.16371307  .00001887  00000-0  13660-3 0  9991,2 54059  53.2161 128.7691 0001161  89.6527 270.4598 15.08835849 37188,6917.893,95.438,540.561,538.955,0.0
54059.0,STARLINK-5173,PAYLOAD,2023-06-19 07:06:30,15.08841559,0.0001195,53.2161,128.1745,90.8946,269.2183,4.9023e-05,4.92e-06,0.0,0 STARLINK-5173,1 54059U 22136J   23170.29619140  .00000492  00000-0  49023-4 0  9999,2 54059  53.2161 128.1745 0001195  90.8946 269.2183 15.08841559 36728,6917.876,95.437,540.567,538.914,0.0
54059.0,STARLINK-5173,PAYLOAD,2023-06-20 06:57:18,15.08837411,0.0001153,53.2163,123.7135,91.5408,268.5717,4.2473e-05,3.88e-06,0.0,0 STARLINK-5173,1 54059U 22136J   23171.28979542  .00000388  00000-0  42473-4 0  9990,2 54059  53.2163 123.7135 0001153  91.5408 268.5717 15.08837411 37356,6917.888,95.438,540.551,538.956,0.0
54059.0,STARLINK-5173,PAYLOAD,2023-06-20 13:18:51,15.0882267,0.0001145,53.2162,122.5245,95.7665,264.3458,0.00022278,3.258e-05,0.0,0 STARLINK-5173,1 54059U 22136J   23171.55476071  .00003258  00000-0  22278-3 0  9998,2 54059  53.2162 122.5245 0001145  95.7665 264.3458 15.08822670 37397,6917.933,95.439,540.59,539.006,0.0
54059.0,STARLINK-5173,PAYLOAD,2023-06-20 21:15:46,15.0883576,0.0001273,53.2153,121.0389,94.6623,265.4514,-1.2466e-05,-4.86e-06,0.0,0 STARLINK-5173,1 54059U 22136J   23171.88596000 -.00000486  00000-0 -12466-4 0  9990,2 54059  53.2153 121.0389 0001273  94.6623 265.4514 15.08835760 36965,6917.893,95.438,540.639,538.878,0.0
54059.0,STARLINK-5173,PAYLOAD,2023-06-21 02:01:56,15.08835751,0.0001203,53.2164,120.1468,94.6885,265.4244,-8.4035e-06,-4.22e-06,0.0,0 STARLINK-5173,1 54059U 22136J   23172.08468023 -.00000422  00000-0 -84035-5 0  9998,2 54059  53.2164 120.1468 0001203  94.6885 265.4244 15.08835751 37475,6917.893,95.438,540.591,538.926,0.0
54059.0,STARLINK-5173,PAYLOAD,2023-06-21 13:09:38,15.08837304,0.0001058,53.2164,118.0675,91.0833,269.028,-6.6004e-05,-1.338e-05,0.0,0 STARLINK-5173,1 54059U 22136J   23172.54836152 -.00001338  00000-0 -66004-4 0  9993,2 54059  53.2164 118.0675 0001058  91.0833 269.0280 15.08837304 37064,6917.889,95.438,540.486,539.022,0.0
54059.0,STARLINK-5173,PAYLOAD,2023-06-22 03:28:06,15.0883704,0.0001254,53.2164,115.3892,95.3009,264.8126,1.4832e-05,-5.2e-07,0.0,0 STARLINK-5173,1 54059U 22136J   23173.14452286 -.00000052  00000-0  14832-4 0  9995,2 54059  53.2164 115.3892 0001254  95.3009 264.8126 15.08837040 37637,6917.889,95.438,540.622,538.887,0.0
54059.0,STARLINK-5173,PAYLOAD,2023-06-23 04:54:16,15.08847251,0.0001288,53.2171,110.6314,98.6287,261.4851,0.00013502,1.862e-05,0.0,0 STARLINK-5173,1 54059U 22136J   23174.20435487  .00001862  00000-0  13502-3 0  9998,2 54059  53.2171 110.6314 0001288  98.6287 261.4851 15.08847251 37793,6917.858,95.437,540.614,538.832,0.0
54059.0,STARLINK-5173,PAYLOAD,2023-06-23 19:12:45,15.08835573,0.0001479,53.2155,107.9562,83.6238,276.4923,0.00010852,1.439e-05,0.0,0 STARLINK-5173,1 54059U 22136J   23174.80052444  .00001439  00000-0  10852-3 0  9997,2 54059  53.2155 107.9562 0001479  83.6238 276.4923 15.08835573 37881,6917.894,95.438,540.782,538.736,0.0
54059.0,STARLINK-5173,PAYLOAD,2023-06-25 01:25:04,15.08846029,0.0001247,53.2168,102.3049,90.4045,269.709,7.7446e-05,9.45e-06,0.0,0 STARLINK-5173,1 54059U 22136J   23176.05908055  .00000945  00000-0  77446-4 0  9998,2 54059  53.2168 102.3049 0001247  90.4045 269.7090 15.08846029 38079,6917.862,95.437,540.59,538.864,0.0
54059.0,STARLINK-5173,PAYLOAD,2023-06-25 04:35:50,15.08855105,0.0001181,53.2166,101.7088,99.174,260.9385,5.9958e-05,6.67e-06,0.0,0 STARLINK-5173,1 54059U 22136J   23176.19155402  .00000667  00000-0  59958-4 0  9992,2 54059  53.2166 101.7088 0001181  99.1740 260.9385 15.08855105 38095,6917.834,95.437,540.516,538.882,0.0
54059.0,STARLINK-5173,PAYLOAD,2023-06-25 12:32:46,15.08843009,0.0001283,53.2168,100.2248,86.9114,273.2024,-2.8532e-05,-7.42e-06,0.0,0 STARLINK-5173,1 54059U 22136J   23176.52276382 -.00000742  00000-0 -28532-4 0  9990,2 54059  53.2168 100.2248 0001283  86.9114 273.2024 15.08843009 38144,6917.871,95.437,540.624,538.849,0.0
54059.0,STARLINK-5173,PAYLOAD,2023-06-27 04:17:25,15.08831421,0.0001277,53.2177,92.7869,100.8741,259.2395,0.0001743,2.487e-05,0.0,0 STARLINK-5173,1 54059U 22136J   23178.17876701  .00002487  00000-0  17430-3 0  9994,2 54059  53.2177  92.7869 0001277 100.8741 259.2395 15.08831421 38390,6917.907,95.438,540.655,538.888,0.0
54059.0,STARLINK-5173,PAYLOAD,2023-06-29 03:58:59,15.08842229,0.0001187,53.2175,83.8681,83.2994,276.8133,7.0036e-05,8.27e-06,0.0,0 STARLINK-5173,1 54059U 22136J   23180.16596779  .00000827  00000-0  70036-4 0  9998,2 54059  53.2175  83.8681 0001187  83.2994 276.8133 15.08842229 38691,6917.874,95.437,540.56,538.917,0.0
54059.0,STARLINK-5173,PAYLOAD,2023-06-29 18:17:28,15.08837023,0.0001183,53.2172,81.1921,83.5388,276.5738,2.1687e-05,5.7e-07,0.0,0 STARLINK-5173,1 54059U 22136J   23180.76213436  .00000057  00000-0  21687-4 0  9993,2 54059  53.2172  81.1921 0001183  83.5388 276.5738 15.08837023 38786,6917.889,95.438,540.573,538.936,0.0
54059.0,STARLINK-5173,PAYLOAD,2023-07-01 00:29:47,15.08842216,0.0001215,53.2177,75.5442,91.1443,268.9688,2.7036e-05,1.42e-06,0.0,0 STARLINK-5173,1 54059U 22136J   23182.02069280  .00000142  00000-0  27036-4 0  9999,2 54059  53.2177  75.5442 0001215  91.1443 268.9688 15.08842216 38979,6917.874,95.437,540.579,538.898,0.0
54059.0,STARLINK-5173,PAYLOAD,2023-07-01 16:23:39,15.08834634,0.0001223,53.2174,72.5701,90.0633,270.0499,5.2487e-05,5.47e-06,0.0,0 STARLINK-5173,1 54059U 22136J   23182.68309775  .00000547  00000-0  52487-4 0  9994,2 54059  53.2174  72.5701 0001223  90.0633 270.0499 15.08834634 39070,6917.897,95.438,540.608,538.916,0.0
54059.0,STARLINK-5173,PAYLOAD,2023-07-02 09:52:53,15.08843677,0.0001262,53.2174,69.2986,85.4036,274.71,3.2377e-05,2.27e-06,0.0,0 STARLINK-5173,1 54059U 22136J   23183.41173335  .00000227  00000-0  32377-4 0  9998,2 54059  53.2174  69.2986 0001262  85.4036 274.7100 15.08843677 39185,6917.869,95.437,540.607,538.861,0.0
54059.0,STARLINK-5173,PAYLOAD,2023-07-03 16:05:13,15.08831824,0.000135,53.2156,63.6506,74.1977,285.9164,6.1852e-05,6.96e-06,0.0,0 STARLINK-5173,1 54059U 22136J   23184.67029845  .00000696  00000-0  61852-4 0  9993,2 54059  53.2156  63.6506 0001350  74.1977 285.9164 15.08831824 39374,6917.905,95.438,540.704,538.836,0.0
54059.0,STARLINK-5173,PAYLOAD,2023-07-04 01:37:32,15.08841278,0.0001391,53.2175,61.8635,92.9164,267.1987,3.8267e-05,3.21e-06,0.0,0 STARLINK-5173,1 54059U 22136J   23185.06773372  .00000321  00000-0  38267-4 0  9997,2 54059  53.2175  61.8635 0001391  92.9164 267.1987 15.08841278 39435,6917.876,95.437,540.704,538.779,0.0
54059.0,STARLINK-5173,PAYLOAD,2023-07-05 23:43:43,15.08838654,0.0001367,53.2174,53.2392,90.7911,269.3238,5.1969e-05,5.39e-06,0.0,0 STARLINK-5173,1 54059U 22136J   23186.98869689  .00000539  00000-0  51969-4 0  9991,2 54059  53.2174  53.2392 0001367  90.7911 269.3238 15.08838654 39727,6917.885,95.438,540.695,538.804,0.0
54059.0,STARLINK-5173,PAYLOAD,2023-07-07 01:09:53,15.08844804,0.0001332,53.2174,48.4826,96.108,264.0064,9.493e-05,1.223e-05,0.0,0 STARLINK-5173,1 54059U 22136J   23188.04853342  .00001223  00000-0  94930-4 0  9995,2 54059  53.2174  48.4826 0001332  96.1080 264.0064 15.08844804 39884,6917.866,95.437,540.652,538.809,0.0
54059.0,STARLINK-5173,PAYLOAD,2023-07-07 21:49:54,15.08841101,0.0001233,53.2176,44.6162,96.9815,263.1318,3.9416e-05,3.4e-06,0.0,0 STARLINK-5173,1 54059U 22136J   23188.90965899  .00000340  00000-0  39416-4 0  9998,2 54059  53.2176  44.6162 0001233  96.9815 263.1318 15.08841101 40017,6917.877,95.437,540.595,538.889,0.0
54059.0,STARLINK-5173,PAYLOAD,2023-07-09 00:51:27,15.08845397,0.0001109,53.2176,39.561,88.282,271.8299,5.5673e-05,5.98e-06,0.0,0 STARLINK-5173,1 54059U 22136J   23190.03573716  .00000598  00000-0  55673-4 0  9996,2 54059  53.2176  39.5610 0001109  88.2820 271.8299 15.08845397 40183,6917.864,95.437,540.496,538.962,0.0
54059.0,STARLINK-5173,PAYLOAD,2023-07-09 18:20:42,15.08841483,0.0001114,53.2176,36.2897,97.3583,262.7536,2.888e-05,1.72e-06,0.0,0 STARLINK-5173,1 54059U 22136J   23190.76438103  .00000172  00000-0  28880-4 0  9994,2 54059  53.2176  36.2897 0001114  97.3583 262.7536 15.08841483 40294,6917.876,95.437,540.512,538.97,0.0
54059.0,STARLINK-5173,PAYLOAD,2023-07-10 13:25:20,15.08830532,8.53e-05,53.2177,32.72,95.6803,264.4287,0.00012469,1.697e-05,0.0,0 STARLINK-5173,1 54059U 22136J   23191.55926442  .00001697  00000-0  12469-3 0  9998,2 54059  53.2177  32.7200 0000853  95.6803 264.4287 15.08830532 40418,6917.909,95.438,540.364,539.184,0.0
54059.0,STARLINK-5173,PAYLOAD,2023-07-10 19:46:52,15.08839412,0.0001052,53.2174,31.5306,92.4203,267.691,8.8282e-05,1.117e-05,0.0,0 STARLINK-5173,1 54059U 22136J   23191.82422038  .00001117  00000-0  88282-4 0  9994,2 54059  53.2174  31.5306 0001052  92.4203 267.6910 15.08839412 40458,6917.882,95.438,540.475,539.019,0.0
